{
    "CCSDS_OMM_VERS": "3.0",
    "COMMENT": "GENERATED VIA SPACE-TRACK.ORG API",
    "CREATION_DATE": "2025-11-22T18:56:57",
    "ORIGINATOR": "18 SPCS",
    "OBJECT_NAME": "COSMOS 2485 (GLONASS)",
    "OBJECT_ID": "2013-019A",
    "CENTER_NAME": "EARTH",
    "REF_FRAME": "TEME",
    "TIME_SYSTEM": "UTC",
    "MEAN_ELEMENT_THEORY": "SGP4",
    "EPOCH": "2025-11-21T23:12:13.920192",
    "MEAN_MOTION": "2.13103166",
    "ECCENTRICITY": "0.00243205",
    "INCLINATION": "65.3052",
    "RA_OF_ASC_NODE": "80.5664",
    "ARG_OF_PERICENTER": "228.2224",
    "MEAN_ANOMALY": "131.5601",
    "EPHEMERIS_TYPE": "0",
    "CLASSIFICATION_TYPE": "U",
    "NORAD_CAT_ID": "39155",
    "ELEMENT_SET_NO": "999",
    "REV_AT_EPOCH": "9786",
    "BSTAR": "0.00000000000000",
    "MEAN_MOTION_DOT": "-0.00000008",
    "MEAN_MOTION_DDOT": "0.0000000000000",
    "SEMIMAJOR_AXIS": "25507.931",
    "PERIOD": "675.729",
    "APOAPSIS": "19191.833",
    "PERIAPSIS": "19067.760",
    "OBJECT_TYPE": "PAYLOAD",
    "RCS_SIZE": "LARGE",
    "COUNTRY_CODE": "CIS",
    "LAUNCH_DATE": "2013-04-26",
    "SITE": "PKMTR",
    "DECAY_DATE": null,
    "FILE": "4894246",
    "GP_ID": "303250756",
    "TLE_LINE0": "0 COSMOS 2485 (GLONASS)",
    "TLE_LINE1": "1 39155U 13019A   25325.96682778 -.00000008  00000-0  00000-0 0  9996",
    "TLE_LINE2": "2 39155  65.3052  80.5664 0024320 228.2224 131.5601  2.13103166 97868"
}